[{"OBJECT_NAME":"GOES 18","OBJECT_ID":"2022-021A","EPOCH":"2025-03-09T17:30:34.415136","MEAN_MOTION":1.00270521,"ECCENTRICITY":1.07e-5,"INCLINATION":0.0222,"RA_OF_ASC_NODE":334.1895,"ARG_OF_PERICENTER":25.6698,"MEAN_ANOMALY":293.4186,"EPHEMERIS_TYPE":0,"CLASSIFICATION_TYPE":"U","NORAD_CAT_ID":51850,"ELEMENT_SET_NO":999,"REV_AT_EPOCH":1114,"BSTAR":0,"MEAN_MOTION_DOT":7.9e-7,"MEAN_MOTION_DDOT":0},{"OBJECT_NAME":"GOES 19","OBJECT_ID":"2024-119A","EPOCH":"2025-03-09T21:09:50.785056","MEAN_MOTION":1.00272618,"ECCENTRICITY":0.000194,"INCLINATION":0.0069,"RA_OF_ASC_NODE":93.0987,"ARG_OF_PERICENTER":256.8225,"MEAN_ANOMALY":45.8337,"EPHEMERIS_TYPE":0,"CLASSIFICATION_TYPE":"U","NORAD_CAT_ID":60133,"ELEMENT_SET_NO":999,"REV_AT_EPOCH":230,"BSTAR":0,"MEAN_MOTION_DOT":-2.0e-6,"MEAN_MOTION_DDOT":0}]
