GOES 18                 
1 51850U 22021A   25068.72956499  .00000079  00000+0  00000+0 0  9992
2 51850   0.0222 334.1895 0000107  25.6698 293.4186  1.00270521 11142
GOES 19                 
1 60133U 24119A   25068.88183779 -.00000200  00000+0  00000+0 0  9993
2 60133   0.0069  93.0987 0001940 256.8225  45.8337  1.00272618  2302
